BSAT-4B                 
1 46112U 20056A   20252.48539924 -.00000343  00000-0  00000-0 0  9993
2 46112   0.0440 306.1230 0004303   9.7562 312.2846  1.00338020   269
MEV-2                   
1 46113U 20056B   20250.04413223 -.00000085  00000-0  00000+0 0  9999
2 46113   3.6163 121.2949 5679467 184.8189 113.1302  1.89665302   424
GALAXY 30               
1 46114U 20056C   20253.05557334 -.00000182  00000-0  00000-0 0  9995
2 46114   0.0163 355.8041 0000519 224.9825 232.3236  1.00272981   293
ARIANE 5 DEB [SYLDA]    
1 46115U 20056D   20252.73045521  .00003997  00000-0  20646-2 0  9996
2 46115   6.0478 114.9450 7267677 197.4140 110.3780  2.28328403   547
ARIANE 5 R/B            
1 46116U 20056E   20252.69408877  .00000162  00000-0  18735-3 0  9997
2 46116   5.8145 117.4740 7268417 194.8132 119.6073  2.28681443   555
STARLINK-1585           
1 46117U 20057A   20253.25001157  .00023914  00000-0  23179-3 0  9990
2 46117  52.9981 333.6315 0008205 284.8299  16.6846 15.66239062  1828
STARLINK-1588           
1 46118U 20057B   20253.25001157  .00025267  00000-0  28066-3 0  9994
2 46118  53.0002 333.9901 0001099  57.3443  75.4526 15.62776177  1778
STARLINK-1593           
1 46119U 20057C   20253.50001157 -.00105592  00000-0 -11590-2 0  9998
2 46119  52.9998 332.7577 0001315  51.5635  52.3699 15.62826344  4126
STARLINK-1601           
1 46120U 20057D   20253.50001157 -.00082015  00000-0 -89761-3 0  9990
2 46120  52.9994 332.7468 0001494  60.0576  50.2930 15.62788903  4123
STARLINK-1602           
1 46121U 20057E   20253.50001157 -.00003335  00000-0 -26401-4 0  9992
2 46121  52.9983 332.4109 0001183  51.3929 222.4922 15.66238051  4123
STARLINK-1604           
1 46122U 20057F   20253.50001157 -.00000912  00000-0 -40913-5 0  9996
2 46122  53.0001 332.7406 0004136 289.7546 183.9161 15.62720674  4122
STARLINK-1605           
1 46123U 20057G   20253.25001157 -.00082821  00000-0 -90449-3 0  9995
2 46123  53.0005 333.9521 0007584 273.5870 237.7477 15.62804366  1776
STARLINK-1614           
1 46124U 20057H   20253.50001157 -.00005628  00000-0 -55556-4 0  9995
2 46124  52.9998 332.7340 0004367 282.2291 193.8210 15.62769879  4120
STARLINK-1618           
1 46125U 20057J   20253.50001157 -.00061039  00000-0 -66425-3 0  9990
2 46125  52.9996 332.7532 0001438  47.9620  54.6650 15.62811039  4128
STARLINK-1619           
1 46126U 20057K   20253.50001157  .00000423  00000-0  10455-4 0  9992
2 46126  52.9992 332.7477 0001287  55.4023  50.9941 15.62765476  4121
STARLINK-1621           
1 46127U 20057L   20253.25001157  .00014287  00000-0  15471-3 0  9990
2 46127  52.9996 333.9445 0001998 319.8577 192.9744 15.63874994  1542
STARLINK-1622           
1 46128U 20057M   20253.25001157  .00021176  00000-0  20750-3 0  9992
2 46128  52.9979 333.6314 0000996  47.2293 252.8440 15.66082135  1775
STARLINK-1623           
1 46129U 20057N   20253.25001157  .00170390  00000-0  18540-2 0  9999
2 46129  53.0020 333.9906 0007513 303.2055 201.4945 15.62361832  1778
STARLINK-1624           
1 46130U 20057P   20253.50001157  .00001908  00000-0  26715-4 0  9992
2 46130  53.0001 332.7262 0001813 313.7786 168.6922 15.62714547  4121
STARLINK-1625           
1 46131U 20057Q   20253.25001157  .00023635  00000-0  22920-3 0  9999
2 46131  52.9986 333.6353 0001529  65.5127 239.8183 15.66268045  1823
STARLINK-1630           
1 46132U 20057R   20253.50001157 -.00064277  00000-0 -70071-3 0  9997
2 46132  53.0004 332.7491 0001254  50.2231  58.8354 15.62788510  4127
STARLINK-1637           
1 46133U 20057S   20253.25001157  .00020536  00000-0  19984-3 0  9994
2 46133  52.9982 333.5996 0002280 309.4367   9.5331 15.66276573  1770
STARLINK-1638           
1 46134U 20057T   20253.25001157  .00023489  00000-0  26129-3 0  9994
2 46134  53.0006 333.9892 0004689 281.9128 212.8797 15.62776388  1773
STARLINK-1639           
1 46135U 20057U   20253.25001157 -.00011460  00000-0 -11957-3 0  9996
2 46135  52.9997 333.9441 0000992  59.5623  94.4115 15.62737464  1773
STARLINK-1643           
1 46136U 20057V   20253.25001157 -.01197820  00000-0 -14435-1 0  9995
2 46136  53.0016 333.9173 0001446  43.1186 137.1476 15.62929345  1774
STARLINK-1586           
1 46137U 20057W   20253.50001157 -.00002384  00000-0 -17290-4 0  9998
2 46137  52.9996 332.3781 0001340  47.8148 239.6698 15.66315341  4125
STARLINK-1590           
1 46138U 20057X   20253.50001157 -.00000672  00000-0 -14988-5 0  9999
2 46138  52.9986 332.7589 0001610  60.5476  40.8762 15.62753081  4128
STARLINK-1592           
1 46139U 20057Y   20253.50001157 -.00035836  00000-0 -38675-3 0  9997
2 46139  53.0008 332.7298 0001368  56.5092  56.3257 15.62785704  4120
STARLINK-1594           
1 46140U 20057Z   20253.50001157 -.00011225  00000-0 -11085-3 0  9991
2 46140  52.9990 332.7032 0004949 293.3802 194.8672 15.64058858  4128
STARLINK-1596           
1 46141U 20057AA  20253.50001157 -.00107778  00000-0 -11825-2 0  9992
2 46141  52.9991 332.7194 0004910 282.7106 197.2280 15.62827508  4122
